{
  "type": "FeatureCollection",
  "features": [
    {
      "type": "Feature",
      "properties": {
        "norad_id": 22490,
        "name": "SCD 1",
        "group": "resource",
        "lat": 17.66825945841601,
        "lon": 60.3882211884986,
        "alt_km": 763.8952679486301,
        "timestamp": "2025-12-11T22:43:46.927733+00:00",
        "meta_object_name": "SCD 1",
        "meta_object_id": "1993-009B",
        "meta_epoch": "2025-12-11T12:55:07.740192",
        "meta_mean_motion": 14.45998002,
        "meta_eccentricity": 0.00417687,
        "meta_inclination": 24.9701,
        "meta_ra_of_asc_node": 286.1042,
        "meta_arg_of_pericenter": 312.2603,
        "meta_mean_anomaly": 209.3801,
        "meta_ephemeris_type": 0,
        "meta_classification_type": "U",
        "meta_norad_cat_id": 22490,
        "meta_element_set_no": 999,
        "meta_rev_at_epoch": 73392,
        "meta_bstar": 0.00016120503,
        "meta_mean_motion_dot": 7.75e-06,
        "meta_mean_motion_ddot": 0,
        "tle_line1": "1 22490U 93009B   25345.53828403  .00000775  00000+0  16121-3 0  9992",
        "tle_line2": "2 22490  24.9701 286.1042 0041768 312.2603 209.3801 14.45998002733927"
      },
      "geometry": {
        "type": "Point",
        "coordinates": [
          60.3882211884986,
          17.66825945841601
        ]
      }
    },
    {
      "type": "Feature",
      "properties": {
        "norad_id": 25397,
        "name": "TECHSAT 1B (GO-32)",
        "group": "resource",
        "lat": 65.13585882902808,
        "lon": -50.83818332328662,
        "alt_km": 802.7100380823022,
        "timestamp": "2025-12-11T22:43:46.927779+00:00",
        "meta_object_name": "TECHSAT 1B (GO-32)",
        "meta_object_id": "1998-043D",
        "meta_epoch": "2025-12-11T10:36:59.205024",
        "meta_mean_motion": 14.24376547,
        "meta_eccentricity": 0.00020891,
        "meta_inclination": 98.9919,
        "meta_ra_of_asc_node": 328.6245,
        "meta_arg_of_pericenter": 59.4694,
        "meta_mean_anomaly": 300.669,
        "meta_ephemeris_type": 0,
        "meta_classification_type": "U",
        "meta_norad_cat_id": 25397,
        "meta_element_set_no": 999,
        "meta_rev_at_epoch": 42460,
        "meta_bstar": 9.8256791e-05,
        "meta_mean_motion_dot": 1.81e-06,
        "meta_mean_motion_ddot": 0,
        "tle_line1": "1 25397U 98043D   25345.44235191  .00000181  00000+0  98257-4 0  9992",
        "tle_line2": "2 25397  98.9919 328.6245 0002089  59.4694 300.6690 14.24376547424602"
      },
      "geometry": {
        "type": "Point",
        "coordinates": [
          -50.83818332328662,
          65.13585882902808
        ]
      }
    },
    {
      "type": "Feature",
      "properties": {
        "norad_id": 25504,
        "name": "SCD 2",
        "group": "resource",
        "lat": 5.208149165601242,
        "lon": -44.4985153318789,
        "alt_km": 746.6768422018231,
        "timestamp": "2025-12-11T22:43:46.927797+00:00",
        "meta_object_name": "SCD 2",
        "meta_object_id": "1998-060A",
        "meta_epoch": "2025-12-11T15:42:46.829952",
        "meta_mean_motion": 14.45422478,
        "meta_eccentricity": 0.00166226,
        "meta_inclination": 24.9932,
        "meta_ra_of_asc_node": 148.5866,
        "meta_arg_of_pericenter": 302.0387,
        "meta_mean_anomaly": 141.2259,
        "meta_ephemeris_type": 0,
        "meta_classification_type": "U",
        "meta_norad_cat_id": 25504,
        "meta_element_set_no": 999,
        "meta_rev_at_epoch": 43316,
        "meta_bstar": 0.00011851598,
        "meta_mean_motion_dot": 6.06e-06,
        "meta_mean_motion_ddot": 0,
        "tle_line1": "1 25504U 98060A   25345.65470868  .00000606  00000+0  11852-3 0  9993",
        "tle_line2": "2 25504  24.9932 148.5866 0016622 302.0387 141.2259 14.45422478433167"
      },
      "geometry": {
        "type": "Point",
        "coordinates": [
          -44.4985153318789,
          5.208149165601242
        ]
      }
    },
    {
      "type": "Feature",
      "properties": {
        "norad_id": 25757,
        "name": "DLR-TUBSAT",
        "group": "resource",
        "lat": -25.185828363587948,
        "lon": 146.3281294148037,
        "alt_km": 713.8856909398346,
        "timestamp": "2025-12-11T22:43:46.927811+00:00",
        "meta_object_name": "DLR-TUBSAT",
        "meta_object_id": "1999-029B",
        "meta_epoch": "2025-12-11T11:51:58.221504",
        "meta_mean_motion": 14.52357072,
        "meta_eccentricity": 0.00138201,
        "meta_inclination": 98.6562,
        "meta_ra_of_asc_node": 329.9697,
        "meta_arg_of_pericenter": 196.6702,
        "meta_mean_anomaly": 163.404,
        "meta_ephemeris_type": 0,
        "meta_classification_type": "U",
        "meta_norad_cat_id": 25757,
        "meta_element_set_no": 999,
        "meta_rev_at_epoch": 40600,
        "meta_bstar": 7.8468437e-05,
        "meta_mean_motion_dot": 2.71e-06,
        "meta_mean_motion_ddot": 0,
        "tle_line1": "1 25757U 99029B   25345.49442386  .00000271  00000+0  78468-4 0  9990",
        "tle_line2": "2 25757  98.6562 329.9697 0013820 196.6702 163.4040 14.52357072406008"
      },
      "geometry": {
        "type": "Point",
        "coordinates": [
          146.3281294148037,
          -25.185828363587948
        ]
      }
    },
    {
      "type": "Feature",
      "properties": {
        "norad_id": 25994,
        "name": "TERRA",
        "group": "resource",
        "lat": -63.198377728786596,
        "lon": -158.45098050174366,
        "alt_km": 699.6368061600442,
        "timestamp": "2025-12-11T22:43:46.927824+00:00",
        "meta_object_name": "TERRA",
        "meta_object_id": "1999-068A",
        "meta_epoch": "2025-12-11T15:44:02.469696",
        "meta_mean_motion": 14.60899989,
        "meta_eccentricity": 0.00036048,
        "meta_inclination": 97.9751,
        "meta_ra_of_asc_node": 37.3799,
        "meta_arg_of_pericenter": 96.656,
        "meta_mean_anomaly": 55.5117,
        "meta_ephemeris_type": 0,
        "meta_classification_type": "U",
        "meta_norad_cat_id": 25994,
        "meta_element_set_no": 999,
        "meta_rev_at_epoch": 38222,
        "meta_bstar": 0.00016839733,
        "meta_mean_motion_dot": 7.8e-06,
        "meta_mean_motion_ddot": 0,
        "tle_line1": "1 25994U 99068A   25345.65558414  .00000780  00000+0  16840-3 0  9994",
        "tle_line2": "2 25994  97.9751  37.3799 0003604  96.6560  55.5117 14.60899989382226"
      },
      "geometry": {
        "type": "Point",
        "coordinates": [
          -158.45098050174366,
          -63.198377728786596
        ]
      }
    },
    {
      "type": "Feature",
      "properties": {
        "norad_id": 27004,
        "name": "MAROC-TUBSAT",
        "group": "resource",
        "lat": 47.910875982781825,
        "lon": -14.600580680796828,
        "alt_km": 1003.5492146892075,
        "timestamp": "2025-12-11T22:43:46.927837+00:00",
        "meta_object_name": "MAROC-TUBSAT",
        "meta_object_id": "2001-056D",
        "meta_epoch": "2025-12-11T11:55:26.037696",
        "meta_mean_motion": 13.70252807,
        "meta_eccentricity": 0.00190937,
        "meta_inclination": 99.7912,
        "meta_ra_of_asc_node": 153.92,
        "meta_arg_of_pericenter": 263.4496,
        "meta_mean_anomaly": 167.9379,
        "meta_ephemeris_type": 0,
        "meta_classification_type": "U",
        "meta_norad_cat_id": 27004,
        "meta_element_set_no": 999,
        "meta_rev_at_epoch": 20048,
        "meta_bstar": 4.7194836e-05,
        "meta_mean_motion_dot": -5e-08,
        "meta_mean_motion_ddot": 0,
        "tle_line1": "1 27004U 01056D   25345.49682914 -.00000005  00000+0  47195-4 0  9992",
        "tle_line2": "2 27004  99.7912 153.9200 0019093 263.4496 167.9379 13.70252807200489"
      },
      "geometry": {
        "type": "Point",
        "coordinates": [
          -14.600580680796828,
          47.910875982781825
        ]
      }
    },
    {
      "type": "Feature",
      "properties": {
        "norad_id": 27424,
        "name": "AQUA",
        "group": "resource",
        "lat": 62.04857285030745,
        "lon": 142.9897303920624,
        "alt_km": 680.5595016794323,
        "timestamp": "2025-12-11T22:43:46.927850+00:00",
        "meta_object_name": "AQUA",
        "meta_object_id": "2002-022A",
        "meta_epoch": "2025-12-11T14:30:45.268704",
        "meta_mean_motion": 14.61804948,
        "meta_eccentricity": 0.0001038,
        "meta_inclination": 98.4037,
        "meta_ra_of_asc_node": 306.4652,
        "meta_arg_of_pericenter": 115.2833,
        "meta_mean_anomaly": 0.7096,
        "meta_ephemeris_type": 0,
        "meta_classification_type": "U",
        "meta_norad_cat_id": 27424,
        "meta_element_set_no": 999,
        "meta_rev_at_epoch": 25586,
        "meta_bstar": 0.00036937075,
        "meta_mean_motion_dot": 1.795e-05,
        "meta_mean_motion_ddot": 0,
        "tle_line1": "1 27424U 02022A   25345.60469061  .00001795  00000+0  36937-3 0  9998",
        "tle_line2": "2 27424  98.4037 306.4652 0001038 115.2833   0.7096 14.61804948255866"
      },
      "geometry": {
        "type": "Point",
        "coordinates": [
          142.9897303920624,
          62.04857285030745
        ]
      }
    }
  ]
}